start=new Date('2022-03-14T00:00:00.000Z').valueOf();
sats=[{"RCS_SIZE":"LARGE","OBJECT_TYPE":"PAYLOAD","OBJECT_ID":"2022-001K","COUNTRY_CODE":"US","INCLINATION":"53.2133","DECAY_DATE":null,"MEAN_MOTION_DDOT":"0.0000000000000","NORAD_CAT_ID":"50812","PERIOD":"91.540","MEAN_ANOMALY":"314.1545","REF_FRAME":"TEME","BSTAR":"0.00070870000000","APOAPSIS":"352.082","CENTER_NAME":"EARTH","MEAN_ELEMENT_THEORY":"SGP4","REV_AT_EPOCH":"370","TLE_LINE1":"1 50812U 22001K   22072.91668981  .00099533  00000-0  70870-3 0  9996","SEMIMAJOR_AXIS":"6728.233","GP_ID":"198691392","ECCENTRICITY":"0.00029490","EPHEMERIS_TYPE":"0","CLASSIFICATION_TYPE":"U","MEAN_MOTION_DOT":"0.00099533","OBJECT_NAME":"STARLINK-3338","TIME_SYSTEM":"UTC","MEAN_MOTION":"15.73081435","FILE":"3358388","EPOCH":"2022-03-13T22:00:01.999584","ELEMENT_SET_NO":"999","LAUNCH_DATE":"2022-01-06","TLE_LINE2":"2 50812  53.2133 232.3418 0002949  13.9694 314.1545 15.73081435  3704","SITE":"AFETR","ARG_OF_PERICENTER":"13.9694","RA_OF_ASC_NODE":"232.3418","PERIAPSIS":"348.114"},{"OBJECT_ID":"2022-001L","OBJECT_TYPE":"PAYLOAD","RCS_SIZE":"LARGE","DECAY_DATE":null,"MEAN_MOTION_DDOT":"0.0000000000000","NORAD_CAT_ID":"50813","INCLINATION":"53.2152","COUNTRY_CODE":"US","MEAN_ELEMENT_THEORY":"SGP4","CENTER_NAME":"EARTH","APOAPSIS":"351.761","REF_FRAME":"TEME","MEAN_ANOMALY":"319.8426","PERIOD":"91.540","BSTAR":"0.00081560000000","TLE_LINE1":"1 50813U 22001L   22072.91668981  .00114877  00000-0  81560-3 0  9994","REV_AT_EPOCH":"370","GP_ID":"198689649","SEMIMAJOR_AXIS":"6728.214","EPHEMERIS_TYPE":"0","ECCENTRICITY":"0.00024990","MEAN_MOTION_DOT":"0.00114877","OBJECT_NAME":"STARLINK-3349","CLASSIFICATION_TYPE":"U","ELEMENT_SET_NO":"999","EPOCH":"2022-03-13T22:00:01.999584","FILE":"3358388","TIME_SYSTEM":"UTC","MEAN_MOTION":"15.73088018","RA_OF_ASC_NODE":"232.3410","PERIAPSIS":"348.398","ARG_OF_PERICENTER":"7.7867","LAUNCH_DATE":"2022-01-06","SITE":"AFETR","TLE_LINE2":"2 50813  53.2152 232.3410 0002499   7.7867 319.8426 15.73088018  3705"},{"GP_ID":"198690398","SEMIMAJOR_AXIS":"6797.885","TLE_LINE1":"1 50814U 22001M   22072.91668981 -.00002020  00000-0 -28640-4 0  9994","REV_AT_EPOCH":"369","BSTAR":"-0.00002864000000","REF_FRAME":"TEME","MEAN_ANOMALY":"284.6491","PERIOD":"92.965","MEAN_ELEMENT_THEORY":"SGP4","CENTER_NAME":"EARTH","APOAPSIS":"421.128","INCLINATION":"53.2159","COUNTRY_CODE":"US","NORAD_CAT_ID":"50814","DECAY_DATE":null,"MEAN_MOTION_DDOT":"0.0000000000000","OBJECT_TYPE":"PAYLOAD","RCS_SIZE":"LARGE","OBJECT_ID":"2022-001M","SITE":"AFETR","TLE_LINE2":"2 50814  53.2159 233.9086 0002028  40.0405 284.6491 15.48966729  3690","LAUNCH_DATE":"2022-01-06","PERIAPSIS":"418.371","RA_OF_ASC_NODE":"233.9086","ARG_OF_PERICENTER":"40.0405","MEAN_MOTION":"15.48966729","TIME_SYSTEM":"UTC","ELEMENT_SET_NO":"999","FILE":"3358388","EPOCH":"2022-03-13T22:00:01.999584","CLASSIFICATION_TYPE":"U","OBJECT_NAME":"STARLINK-3324","MEAN_MOTION_DOT":"-0.00002020","ECCENTRICITY":"0.00020280","EPHEMERIS_TYPE":"0"},{"LAUNCH_DATE":"2022-01-06","SITE":"AFETR","TLE_LINE2":"2 50815  53.2148 233.9109 0001822  24.8801 275.9976 15.48997241  3690","PERIAPSIS":"418.422","RA_OF_ASC_NODE":"233.9109","ARG_OF_PERICENTER":"24.8801","TIME_SYSTEM":"UTC","MEAN_MOTION":"15.48997241","ELEMENT_SET_NO":"999","FILE":"3358388","EPOCH":"2022-03-13T22:00:01.999584","CLASSIFICATION_TYPE":"U","MEAN_MOTION_DOT":"0.00104208","OBJECT_NAME":"STARLINK-3234","ECCENTRICITY":"0.00018220","EPHEMERIS_TYPE":"0","TLE_LINE1":"1 50815U 22001N   22072.91668981  .00104208  00000-0  18773-2 0  9998","REV_AT_EPOCH":"369","GP_ID":"198691145","SEMIMAJOR_AXIS":"6797.795","REF_FRAME":"TEME","MEAN_ANOMALY":"275.9976","PERIOD":"92.963","BSTAR":"0.00187730000000","MEAN_ELEMENT_THEORY":"SGP4","CENTER_NAME":"EARTH","APOAPSIS":"420.899","INCLINATION":"53.2148","COUNTRY_CODE":"US","MEAN_MOTION_DDOT":"0.0000000000000","DECAY_DATE":null,"NORAD_CAT_ID":"50815","RCS_SIZE":"LARGE","OBJECT_TYPE":"PAYLOAD","OBJECT_ID":"2022-001N"},{"TLE_LINE1":"1 50816U 22001P   22072.91668981 -.00130467  00000-0 -24030-2 0  9990","REV_AT_EPOCH":"369","GP_ID":"198690892","SEMIMAJOR_AXIS":"6797.790","MEAN_ANOMALY":"195.4973","PERIOD":"92.963","REF_FRAME":"TEME","BSTAR":"-0.00240300000000","APOAPSIS":"421.081","CENTER_NAME":"EARTH","MEAN_ELEMENT_THEORY":"SGP4","COUNTRY_CODE":"US","INCLINATION":"53.2119","DECAY_DATE":null,"MEAN_MOTION_DDOT":"0.0000000000000","NORAD_CAT_ID":"50816","OBJECT_TYPE":"PAYLOAD","RCS_SIZE":"LARGE","OBJECT_ID":"2022-001P","LAUNCH_DATE":"2022-01-06","TLE_LINE2":"2 50816  53.2119 233.9241 0002099  33.5431 195.4973 15.48999166  3690","SITE":"AFETR","ARG_OF_PERICENTER":"33.5431","PERIAPSIS":"418.228","RA_OF_ASC_NODE":"233.9241","TIME_SYSTEM":"UTC","MEAN_MOTION":"15.48999166","FILE":"3358388","EPOCH":"2022-03-13T22:00:01.999584","ELEMENT_SET_NO":"999","CLASSIFICATION_TYPE":"U","MEAN_MOTION_DOT":"-0.00130467","OBJECT_NAME":"STARLINK-3342","ECCENTRICITY":"0.00020990","EPHEMERIS_TYPE":"0"},{"EPHEMERIS_TYPE":"0","ECCENTRICITY":"0.00019350","OBJECT_NAME":"STARLINK-3341","MEAN_MOTION_DOT":"0.00102973","CLASSIFICATION_TYPE":"U","ELEMENT_SET_NO":"999","EPOCH":"2022-03-13T22:00:01.999584","FILE":"3358388","MEAN_MOTION":"15.48974568","TIME_SYSTEM":"UTC","RA_OF_ASC_NODE":"233.9099","PERIAPSIS":"418.411","ARG_OF_PERICENTER":"44.4809","SITE":"AFETR","TLE_LINE2":"2 50817  53.2145 233.9099 0001935  44.4809 264.2769 15.48974568  3696","LAUNCH_DATE":"2022-01-06","OBJECT_ID":"2022-001Q","OBJECT_TYPE":"PAYLOAD","RCS_SIZE":"LARGE","NORAD_CAT_ID":"50817","MEAN_MOTION_DDOT":"0.0000000000000","DECAY_DATE":null,"INCLINATION":"53.2145","COUNTRY_CODE":"US","MEAN_ELEMENT_THEORY":"SGP4","CENTER_NAME":"EARTH","APOAPSIS":"421.042","BSTAR":"0.00185690000000","REF_FRAME":"TEME","MEAN_ANOMALY":"264.2769","PERIOD":"92.965","SEMIMAJOR_AXIS":"6797.862","GP_ID":"198690150","REV_AT_EPOCH":"369","TLE_LINE1":"1 50817U 22001Q   22072.91668981  .00102973  00000-0  18569-2 0  9990"},{"GP_ID":"198689898","SEMIMAJOR_AXIS":"6797.885","TLE_LINE1":"1 50818U 22001R   22072.91668981 -.00146807  00000-0 -27137-2 0  9998","REV_AT_EPOCH":"369","APOAPSIS":"421.176","MEAN_ELEMENT_THEORY":"SGP4","CENTER_NAME":"EARTH","BSTAR":"-0.00271370000000","PERIOD":"92.965","MEAN_ANOMALY":"180.3050","REF_FRAME":"TEME","NORAD_CAT_ID":"50818","MEAN_MOTION_DDOT":"0.0000000000000","DECAY_DATE":null,"COUNTRY_CODE":"US","INCLINATION":"53.2114","OBJECT_ID":"2022-001R","RCS_SIZE":"LARGE","OBJECT_TYPE":"PAYLOAD","ARG_OF_PERICENTER":"32.9762","PERIAPSIS":"418.323","RA_OF_ASC_NODE":"233.9276","TLE_LINE2":"2 50818  53.2114 233.9276 0002099  32.9762 180.3050 15.48966711  3694","SITE":"AFETR","LAUNCH_DATE":"2022-01-06","FILE":"3358388","EPOCH":"2022-03-13T22:00:01.999584","ELEMENT_SET_NO":"999","MEAN_MOTION":"15.48966711","TIME_SYSTEM":"UTC","OBJECT_NAME":"STARLINK-3336","MEAN_MOTION_DOT":"-0.00146807","CLASSIFICATION_TYPE":"U","EPHEMERIS_TYPE":"0","ECCENTRICITY":"0.00020990"},{"COUNTRY_CODE":"US","INCLINATION":"53.2166","NORAD_CAT_ID":"50819","DECAY_DATE":null,"MEAN_MOTION_DDOT":"0.0000000000000","OBJECT_TYPE":"PAYLOAD","RCS_SIZE":"LARGE","OBJECT_ID":"2022-001S","GP_ID":"198690645","SEMIMAJOR_AXIS":"6798.036","TLE_LINE1":"1 50819U 22001S   22072.91668981  .00044850  00000-0  82111-3 0  9996","REV_AT_EPOCH":"370","BSTAR":"0.00082111000000","MEAN_ANOMALY":"291.1335","PERIOD":"92.968","REF_FRAME":"TEME","APOAPSIS":"421.131","MEAN_ELEMENT_THEORY":"SGP4","CENTER_NAME":"EARTH","CLASSIFICATION_TYPE":"U","OBJECT_NAME":"STARLINK-3327","MEAN_MOTION_DOT":"0.00044850","ECCENTRICITY":"0.00018090","EPHEMERIS_TYPE":"0","TLE_LINE2":"2 50819  53.2166 233.9127 0001809  41.3958 291.1335 15.48914924  3704","SITE":"AFETR","LAUNCH_DATE":"2022-01-06","ARG_OF_PERICENTER":"41.3958","PERIAPSIS":"418.671","RA_OF_ASC_NODE":"233.9127","MEAN_MOTION":"15.48914924","TIME_SYSTEM":"UTC","FILE":"3358388","EPOCH":"2022-03-13T22:00:01.999584","ELEMENT_SET_NO":"999"},{"REF_FRAME":"TEME","PERIOD":"92.959","MEAN_ANOMALY":"203.5907","BSTAR":"-0.00134880000000","MEAN_ELEMENT_THEORY":"SGP4","CENTER_NAME":"EARTH","APOAPSIS":"420.876","REV_AT_EPOCH":"369","TLE_LINE1":"1 50820U 22001T   22072.91668981 -.00074129  00000-0 -13488-2 0  9992","GP_ID":"198691393","SEMIMAJOR_AXIS":"6797.590","RCS_SIZE":"LARGE","OBJECT_TYPE":"PAYLOAD","OBJECT_ID":"2022-001T","INCLINATION":"53.2128","COUNTRY_CODE":"US","DECAY_DATE":null,"MEAN_MOTION_DDOT":"0.0000000000000","NORAD_CAT_ID":"50820","TIME_SYSTEM":"UTC","MEAN_MOTION":"15.49067486","ELEMENT_SET_NO":"999","FILE":"3358388","EPOCH":"2022-03-13T22:00:01.999584","LAUNCH_DATE":"2022-01-06","SITE":"AFETR","TLE_LINE2":"2 50820  53.2128 233.9227 0002091  33.3952 203.5907 15.49067486  3697","RA_OF_ASC_NODE":"233.9227","PERIAPSIS":"418.033","ARG_OF_PERICENTER":"33.3952","ECCENTRICITY":"0.00020910","EPHEMERIS_TYPE":"0","CLASSIFICATION_TYPE":"U","MEAN_MOTION_DOT":"-0.00074129","OBJECT_NAME":"STARLINK-3339"},{"EPHEMERIS_TYPE":"0","ECCENTRICITY":"0.00018900","MEAN_MOTION_DOT":"0.00004416","OBJECT_NAME":"STARLINK-3346","CLASSIFICATION_TYPE":"U","FILE":"3358388","EPOCH":"2022-03-13T22:00:01.999584","ELEMENT_SET_NO":"999","TIME_SYSTEM":"UTC","MEAN_MOTION":"15.48963643","ARG_OF_PERICENTER":"324.7845","RA_OF_ASC_NODE":"233.9129","PERIAPSIS":"418.474","LAUNCH_DATE":"2022-01-06","TLE_LINE2":"2 50821  53.2138 233.9129 0001890 324.7845 303.6282 15.48963643  3691","SITE":"AFETR","OBJECT_ID":"2022-001U","OBJECT_TYPE":"PAYLOAD","RCS_SIZE":"LARGE","DECAY_DATE":null,"MEAN_MOTION_DDOT":"0.0000000000000","NORAD_CAT_ID":"50821","COUNTRY_CODE":"US","INCLINATION":"53.2138","APOAPSIS":"421.043","MEAN_ELEMENT_THEORY":"SGP4","CENTER_NAME":"EARTH","PERIOD":"92.965","MEAN_ANOMALY":"303.6282","REF_FRAME":"TEME","BSTAR":"0.00008845800000","TLE_LINE1":"1 50821U 22001U   22072.91668981  .00004416  00000-0  88458-4 0  9994","REV_AT_EPOCH":"369","GP_ID":"198689650","SEMIMAJOR_AXIS":"6797.894"}];
